{
  "type": "FeatureCollection",
  "features": [
    {
      "geometry": {
        "type": "Point",
        "coordinates": [
          -75.08386257232758,
          40.01658740682802
        ]
      },
      "type": "Feature",
      "id": 8,
      "properties": {
        "LOC": "City of Philadelphia",
        "Walk_data": 89.0,
        "Time_Score": 4.0,
        "Agency": "SEPTA",
        "OPERATOR": "SEPTA",
        "Line_1": "Market - Frankford Line (MFL)",
        "STATION": "Arrott Transportation Center",
        "Int_Score": 4.0,
        "CNTY": "Philadelphia",
        "FuturePote": 1.8,
        "LINE": "Market/Frankford Line",
        "TCI_Data": 46.0,
        "MCD_NAME": "Lower Northeast",
        "Time_Data": "1.4074074074",
        "Job_Score": 3.0,
        "LUContext": "Core City",
        "Dev_Score": 1.0,
        "TCI_Score": 4.0,
        "LONG": -75.083863,
        "Type_1": "Urban Neighborhood",
        "LOCATION": "Philadelphia",
        "Car_Score": 4.0,
        "Job_Data": 465039.0,
        "COUNTY": "Philadelphia",
        "DVRPC_ID": 152,
        "STATE": "Pennsylvania",
        "FP_Quad": "below",
        "ExistingOr": 3.714286,
        "MAP_NAME": "Arrott Transportation Center",
        "QUAD": "abovebelow",
        "Walk_Score": 3.0,
        "Station_Na": "Arrott Transportation Center",
        "Com_Score": 4.0,
        "Int_Data": 18898.0,
        "Car_Data": 80.61,
        "ResRent_Da": 1.0,
        "Com_Data": 39.16,
        "MCD": "Philadelphia",
        "CommRent_S": 1.0,
        "LAT": 40.016587,
        "Planning_S": 4.0,
        "ExO_Quad": "above",
        "Dev_Data": 5.0,
        "CommRent_D": 14.02,
        "TYPE": "Subway-Elevated",
        "ResRent_Sc": 1.0,
        "Land_Score": 2.0,
        "DISTRICT": "7"
      }
    },
    {
      "geometry": {
        "type": "Point",
        "coordinates": [
          -75.09616235637344,
          40.00593766262571
        ]
      },
      "type": "Feature",
      "id": 9,
      "properties": {
        "LOC": "City of Philadelphia",
        "Walk_data": 83.0,
        "Time_Score": 4.0,
        "Agency": "SEPTA",
        "OPERATOR": "SEPTA",
        "Line_1": "Market - Frankford Line (MFL)",
        "STATION": "Erie-Torresdale",
        "Int_Score": 3.0,
        "CNTY": "Philadelphia",
        "FuturePote": 1.6,
        "LINE": "Market/Frankford Line",
        "TCI_Data": 38.0,
        "MCD_NAME": "River Wards",
        "Time_Data": "1.3913043478",
        "Job_Score": 3.0,
        "LUContext": "Core City",
        "Dev_Score": 1.0,
        "TCI_Score": 3.0,
        "LONG": -75.096162,
        "Type_1": "Urban Neighborhood",
        "LOCATION": "Philadelphia",
        "Car_Score": 4.0,
        "Job_Data": 492153.0,
        "COUNTY": "Philadelphia",
        "DVRPC_ID": 168,
        "STATE": "Pennsylvania",
        "FP_Quad": "below",
        "ExistingOr": 3.285714,
        "MAP_NAME": "Erie-Torresdale Station",
        "QUAD": "abovebelow",
        "Walk_Score": 3.0,
        "Station_Na": "Erie-Torresdale",
        "Com_Score": 3.0,
        "Int_Data": 13917.0,
        "Car_Data": 80.49,
        "ResRent_Da": 1.2,
        "Com_Data": 35.96,
        "MCD": "Philadelphia",
        "CommRent_S": 2.0,
        "LAT": 40.005938,
        "Planning_S": 1.0,
        "ExO_Quad": "above",
        "Dev_Data": 0.0,
        "CommRent_D": 17.7,
        "TYPE": "Subway-Elevated",
        "ResRent_Sc": 2.0,
        "Land_Score": 2.0,
        "DISTRICT": "6"
      }
    },
    {
      "geometry": {
        "type": "Point",
        "coordinates": [
          -75.10636508368842,
          40.00035403543253
        ]
      },
      "type": "Feature",
      "id": 10,
      "properties": {
        "LOC": "City of Philadelphia",
        "Walk_data": 85.0,
        "Time_Score": 4.0,
        "Agency": "SEPTA",
        "OPERATOR": "SEPTA",
        "Line_1": "Market - Frankford Line (MFL)",
        "STATION": "Tioga",
        "Int_Score": 4.0,
        "CNTY": "Philadelphia",
        "FuturePote": 1.2,
        "LINE": "Market/Frankford Line",
        "TCI_Data": 34.0,
        "MCD_NAME": "River Wards",
        "Time_Data": "1.3636363636",
        "Job_Score": 4.0,
        "LUContext": "Core City",
        "Dev_Score": 1.0,
        "TCI_Score": 3.0,
        "LONG": -75.106365,
        "Type_1": "Urban Neighborhood",
        "LOCATION": "Philadelphia",
        "Car_Score": 4.0,
        "Job_Data": 515384.0,
        "COUNTY": "Philadelphia",
        "DVRPC_ID": 169,
        "STATE": "Pennsylvania",
        "FP_Quad": "below",
        "ExistingOr": 3.714286,
        "MAP_NAME": "Tioga Station",
        "QUAD": "abovebelow",
        "Walk_Score": 3.0,
        "Station_Na": "Tioga",
        "Com_Score": 4.0,
        "Int_Data": 20710.0,
        "Car_Data": 81.59,
        "ResRent_Da": 0.92,
        "Com_Data": 44.21,
        "MCD": "Philadelphia",
        "CommRent_S": 1.0,
        "LAT": 40.000354,
        "Planning_S": 1.0,
        "ExO_Quad": "above",
        "Dev_Data": 0.0,
        "CommRent_D": 5.73,
        "TYPE": "Subway-Elevated",
        "ResRent_Sc": 1.0,
        "Land_Score": 2.0,
        "DISTRICT": "6"
      }
    },
    {
      "geometry": {
        "type": "Point",
        "coordinates": [
          -75.13620031844715,
          39.968914760191325
        ]
      },
      "type": "Feature",
      "id": 11,
      "properties": {
        "LOC": "City of Philadelphia",
        "Walk_data": 94.0,
        "Time_Score": 4.0,
        "Agency": "SEPTA",
        "OPERATOR": "SEPTA",
        "Line_1": "Market - Frankford Line (MFL)",
        "STATION": "Girard",
        "Int_Score": 3.0,
        "CNTY": "Philadelphia",
        "FuturePote": 3.0,
        "LINE": "Market/Frankford Line",
        "TCI_Data": 48.0,
        "MCD_NAME": "Lower North",
        "Time_Data": "1.4285714286",
        "Job_Score": 4.0,
        "LUContext": "Core City",
        "Dev_Score": 4.0,
        "TCI_Score": 4.0,
        "LONG": -75.1362,
        "Type_1": "Urban Neighborhood",
        "LOCATION": "Philadelphia",
        "Car_Score": 3.0,
        "Job_Data": 540528.0,
        "COUNTY": "Philadelphia",
        "DVRPC_ID": 174,
        "STATE": "Pennsylvania",
        "FP_Quad": "above",
        "ExistingOr": 3.714286,
        "MAP_NAME": "Girard Station",
        "QUAD": "aboveabove",
        "Walk_Score": 4.0,
        "Station_Na": "Girard",
        "Com_Score": 4.0,
        "Int_Data": 13729.0,
        "Car_Data": 69.56,
        "ResRent_Da": 1.9,
        "Com_Data": 40.47,
        "MCD": "Philadelphia",
        "CommRent_S": 2.0,
        "LAT": 39.968915,
        "Planning_S": 1.0,
        "ExO_Quad": "above",
        "Dev_Data": 1543.0,
        "CommRent_D": 18.64,
        "TYPE": "Subway-Elevated",
        "ResRent_Sc": 4.0,
        "Land_Score": 4.0,
        "DISTRICT": "5"
      }
    },
    {
      "geometry": {
        "type": "Point",
        "coordinates": [
          -75.14668358578655,
          40.02990462116324
        ]
      },
      "type": "Feature",
      "id": 12,
      "properties": {
        "LOC": "City of Philadelphia",
        "Walk_data": 88.0,
        "Time_Score": 4.0,
        "Agency": "SEPTA",
        "OPERATOR": "SEPTA",
        "Line_1": "Broad Street Line",
        "STATION": "Logan",
        "Int_Score": 4.0,
        "CNTY": "Philadelphia",
        "FuturePote": 1.8,
        "LINE": "Broad Street Line",
        "TCI_Data": 39.0,
        "MCD_NAME": "Upper North",
        "Time_Data": "1.0322580645",
        "Job_Score": 3.0,
        "LUContext": "Core City",
        "Dev_Score": 1.0,
        "TCI_Score": 4.0,
        "LONG": -75.146684,
        "Type_1": "Urban Neighborhood",
        "LOCATION": "Philadelphia",
        "Car_Score": 3.0,
        "Job_Data": 474890.0,
        "COUNTY": "Philadelphia",
        "DVRPC_ID": 181,
        "STATE": "Pennsylvania",
        "FP_Quad": "below",
        "ExistingOr": 3.571429,
        "MAP_NAME": "Logan Station",
        "QUAD": "abovebelow",
        "Walk_Score": 3.0,
        "Station_Na": "Logan",
        "Com_Score": 4.0,
        "Int_Data": 17104.0,
        "Car_Data": 76.73,
        "ResRent_Da": 1.85,
        "Com_Data": 42.18,
        "MCD": "Philadelphia",
        "CommRent_S": 2.0,
        "LAT": 40.029905,
        "Planning_S": 1.0,
        "ExO_Quad": "above",
        "Dev_Data": 40.0,
        "CommRent_D": 18.66,
        "TYPE": "Subway",
        "ResRent_Sc": 4.0,
        "Land_Score": 1.0,
        "DISTRICT": "9"
      }
    },
    {
      "geometry": {
        "type": "Point",
        "coordinates": [
          -75.14468029880001,
          40.03906161183271
        ]
      },
      "type": "Feature",
      "id": 13,
      "properties": {
        "LOC": "City of Philadelphia",
        "Walk_data": 91.0,
        "Time_Score": 4.0,
        "Agency": "SEPTA",
        "OPERATOR": "SEPTA",
        "Line_1": "Broad Street Line",
        "STATION": "Olney Transportation Center",
        "Int_Score": 4.0,
        "CNTY": "Philadelphia",
        "FuturePote": 1.4,
        "LINE": "Broad Street Line",
        "TCI_Data": 49.0,
        "MCD_NAME": "Upper North",
        "Time_Data": "1.5652173913",
        "Job_Score": 4.0,
        "LUContext": "Core City",
        "Dev_Score": 1.0,
        "TCI_Score": 4.0,
        "LONG": -75.14468,
        "Type_1": "Urban Neighborhood",
        "LOCATION": "Philadelphia",
        "Car_Score": 4.0,
        "Job_Data": 600593.0,
        "COUNTY": "Philadelphia",
        "DVRPC_ID": 199,
        "STATE": "Pennsylvania",
        "FP_Quad": "below",
        "ExistingOr": 4.0,
        "MAP_NAME": "Olney Transportation Center",
        "QUAD": "abovebelow",
        "Walk_Score": 4.0,
        "Station_Na": "Olney Transportation Center",
        "Com_Score": 4.0,
        "Int_Data": 19018.0,
        "Car_Data": 80.85,
        "ResRent_Da": 0.95,
        "Com_Data": 49.34,
        "MCD": "Philadelphia",
        "CommRent_S": 2.0,
        "LAT": 40.039062,
        "Planning_S": 1.0,
        "ExO_Quad": "above",
        "Dev_Data": 0.0,
        "CommRent_D": 18.15,
        "TYPE": "Subway",
        "ResRent_Sc": 1.0,
        "Land_Score": 2.0,
        "DISTRICT": "9"
      }
    },
    {
      "geometry": {
        "type": "Point",
        "coordinates": [
          -75.1528720098295,
          40.00159140229086
        ]
      },
      "type": "Feature",
      "id": 28,
      "properties": {
        "LOC": "City of Philadelphia",
        "Walk_data": 72.0,
        "Time_Score": 3.0,
        "Agency": "SEPTA",
        "OPERATOR": "SEPTA",
        "Line_1": "Broad Street Line",
        "STATION": "Allegheny",
        "Int_Score": 4.0,
        "CNTY": "Philadelphia",
        "FuturePote": 2.0,
        "LINE": "Broad Street Line",
        "TCI_Data": 52.0,
        "MCD_NAME": "North",
        "Time_Data": "0.83333333333",
        "Job_Score": 4.0,
        "LUContext": "Core City",
        "Dev_Score": 1.0,
        "TCI_Score": 4.0,
        "LONG": -75.152872,
        "Type_1": "Urban Neighborhood",
        "LOCATION": "Philadelphia",
        "Car_Score": 4.0,
        "Job_Data": 588212.0,
        "COUNTY": "Philadelphia",
        "DVRPC_ID": 195,
        "STATE": "Pennsylvania",
        "FP_Quad": "below",
        "ExistingOr": 3.714286,
        "MAP_NAME": "Allegheny Station",
        "QUAD": "abovebelow",
        "Walk_Score": 3.0,
        "Station_Na": "Allegheny",
        "Com_Score": 4.0,
        "Int_Data": 21265.0,
        "Car_Data": 92.11,
        "ResRent_Da": 1.11,
        "Com_Data": 63.07,
        "MCD": "Philadelphia",
        "CommRent_S": 4.0,
        "LAT": 40.001591,
        "Planning_S": 1.0,
        "ExO_Quad": "above",
        "Dev_Data": 0.0,
        "CommRent_D": 21.99,
        "TYPE": "Subway",
        "ResRent_Sc": 1.0,
        "Land_Score": 3.0,
        "DISTRICT": "5"
      }
    },
    {
      "geometry": {
        "type": "Point",
        "coordinates": [
          -75.16850471268874,
          39.929848527834565
        ]
      },
      "type": "Feature",
      "id": 46,
      "properties": {
        "LOC": "City of Philadelphia",
        "Walk_data": 97.0,
        "Time_Score": 4.0,
        "Agency": "SEPTA",
        "OPERATOR": "SEPTA",
        "Line_1": "Broad Street Line",
        "STATION": "Tasker-Morris",
        "Int_Score": 4.0,
        "CNTY": "Philadelphia",
        "FuturePote": 2.2,
        "LINE": "Broad Street Line",
        "TCI_Data": 54.0,
        "MCD_NAME": "South",
        "Time_Data": "1.0625",
        "Job_Score": 4.0,
        "LUContext": "Core City",
        "Dev_Score": 3.0,
        "TCI_Score": 4.0,
        "LONG": -75.168505,
        "Type_1": "Urban Neighborhood",
        "LOCATION": "Philadelphia",
        "Car_Score": 4.0,
        "Job_Data": 500458.0,
        "COUNTY": "Philadelphia",
        "DVRPC_ID": 182,
        "STATE": "Pennsylvania",
        "FP_Quad": "above",
        "ExistingOr": 4.0,
        "MAP_NAME": "Tasker-Morris Station",
        "QUAD": "aboveabove",
        "Walk_Score": 4.0,
        "Station_Na": "Tasker-Morris",
        "Com_Score": 4.0,
        "Int_Data": 34137.0,
        "Car_Data": 87.11,
        "ResRent_Da": 0.9,
        "Com_Data": 50.28,
        "MCD": "Philadelphia",
        "CommRent_S": 4.0,
        "LAT": 39.929849,
        "Planning_S": 2.0,
        "ExO_Quad": "above",
        "Dev_Data": 345.0,
        "CommRent_D": 27.73,
        "TYPE": "Subway",
        "ResRent_Sc": 1.0,
        "Land_Score": 1.0,
        "DISTRICT": "1"
      }
    },
    {
      "geometry": {
        "type": "Point",
        "coordinates": [
          -75.16712570953146,
          39.93619401262242
        ]
      },
      "type": "Feature",
      "id": 47,
      "properties": {
        "LOC": "City of Philadelphia",
        "Walk_data": 92.0,
        "Time_Score": 3.0,
        "Agency": "SEPTA",
        "OPERATOR": "SEPTA",
        "Line_1": "Broad Street Line",
        "STATION": "Ellsworth-Federal",
        "Int_Score": 4.0,
        "CNTY": "Philadelphia",
        "FuturePote": 3.2,
        "LINE": "Broad Street Line",
        "TCI_Data": 57.0,
        "MCD_NAME": "South",
        "Time_Data": "0.8",
        "Job_Score": 4.0,
        "LUContext": "Core City",
        "Dev_Score": 4.0,
        "TCI_Score": 4.0,
        "LONG": -75.167126,
        "Type_1": "Urban Neighborhood",
        "LOCATION": "Philadelphia",
        "Car_Score": 4.0,
        "Job_Data": 518166.0,
        "COUNTY": "Philadelphia",
        "DVRPC_ID": 186,
        "STATE": "Pennsylvania",
        "FP_Quad": "above",
        "ExistingOr": 3.857143,
        "MAP_NAME": "Ellsworth-Federal Station",
        "QUAD": "aboveabove",
        "Walk_Score": 4.0,
        "Station_Na": "Ellsworth-Federal",
        "Com_Score": 4.0,
        "Int_Data": 25929.0,
        "Car_Data": 87.69,
        "ResRent_Da": 1.5,
        "Com_Data": 56.76,
        "MCD": "Philadelphia",
        "CommRent_S": 3.0,
        "LAT": 39.936194,
        "Planning_S": 2.0,
        "ExO_Quad": "above",
        "Dev_Data": 1658.0,
        "CommRent_D": 21.56,
        "TYPE": "Subway",
        "ResRent_Sc": 3.0,
        "Land_Score": 4.0,
        "DISTRICT": "1"
      }
    },
    {
      "geometry": {
        "type": "Point",
        "coordinates": [
          -75.22487812788918,
          39.95998939146363
        ]
      },
      "type": "Feature",
      "id": 64,
      "properties": {
        "LOC": "City of Philadelphia",
        "Walk_data": 94.0,
        "Time_Score": 4.0,
        "Agency": "SEPTA",
        "OPERATOR": "SEPTA",
        "Line_1": "Market - Frankford Line (MFL)",
        "STATION": "52nd Street",
        "Int_Score": 4.0,
        "CNTY": "Philadelphia",
        "FuturePote": 2.8,
        "LINE": "Market/Frankford Line",
        "TCI_Data": 47.0,
        "MCD_NAME": "West",
        "Time_Data": "1.6153846154",
        "Job_Score": 4.0,
        "LUContext": "Core City",
        "Dev_Score": 3.0,
        "TCI_Score": 4.0,
        "LONG": -75.224878,
        "Type_1": "Urban Neighborhood",
        "LOCATION": "Philadelphia",
        "Car_Score": 4.0,
        "Job_Data": 552205.0,
        "COUNTY": "Philadelphia",
        "DVRPC_ID": 162,
        "STATE": "Pennsylvania",
        "FP_Quad": "above",
        "ExistingOr": 4.0,
        "MAP_NAME": "52nd Street Station",
        "QUAD": "aboveabove",
        "Walk_Score": 4.0,
        "Station_Na": "52nd Street",
        "Com_Score": 4.0,
        "Int_Data": 21134.0,
        "Car_Data": 89.28,
        "ResRent_Da": 1.25,
        "Com_Data": 55.69,
        "MCD": "Philadelphia",
        "CommRent_S": 3.0,
        "LAT": 39.959989,
        "Planning_S": 3.0,
        "ExO_Quad": "above",
        "Dev_Data": 237.0,
        "CommRent_D": 18.75,
        "TYPE": "Subway-Elevated",
        "ResRent_Sc": 2.0,
        "Land_Score": 3.0,
        "DISTRICT": "3"
      }
    },
    {
      "geometry": {
        "type": "Point",
        "coordinates": [
          -75.13202749359958,
          39.98543746844196
        ]
      },
      "type": "Feature",
      "id": 65,
      "properties": {
        "LOC": "City of Philadelphia",
        "Walk_data": 90.0,
        "Time_Score": 4.0,
        "Agency": "SEPTA",
        "OPERATOR": "SEPTA",
        "Line_1": "Market - Frankford Line (MFL)",
        "STATION": "York-Dauphin",
        "Int_Score": 4.0,
        "CNTY": "Philadelphia",
        "FuturePote": 2.2,
        "LINE": "Market/Frankford Line",
        "TCI_Data": 45.0,
        "MCD_NAME": "River Wards",
        "Time_Data": "1.1428571429",
        "Job_Score": 4.0,
        "LUContext": "Core City",
        "Dev_Score": 2.0,
        "TCI_Score": 4.0,
        "LONG": -75.132027,
        "Type_1": "Urban Neighborhood",
        "LOCATION": "Philadelphia",
        "Car_Score": 4.0,
        "Job_Data": 565998.0,
        "COUNTY": "Philadelphia",
        "DVRPC_ID": 163,
        "STATE": "Pennsylvania",
        "FP_Quad": "above",
        "ExistingOr": 4.0,
        "MAP_NAME": "York-Dauphin Station",
        "QUAD": "aboveabove",
        "Walk_Score": 4.0,
        "Station_Na": "York-Dauphin",
        "Com_Score": 4.0,
        "Int_Data": 18618.0,
        "Car_Data": 82.19,
        "ResRent_Da": 0.8,
        "Com_Data": 47.4,
        "MCD": "Philadelphia",
        "CommRent_S": 3.0,
        "LAT": 39.985437,
        "Planning_S": 1.0,
        "ExO_Quad": "above",
        "Dev_Data": 102.0,
        "CommRent_D": 21.8,
        "TYPE": "Subway-Elevated",
        "ResRent_Sc": 1.0,
        "Land_Score": 4.0,
        "DISTRICT": "7"
      }
    },
    {
      "geometry": {
        "type": "Point",
        "coordinates": [
          -75.23279740794449,
          39.96098166148814
        ]
      },
      "type": "Feature",
      "id": 66,
      "properties": {
        "LOC": "City of Philadelphia",
        "Walk_data": 89.0,
        "Time_Score": 4.0,
        "Agency": "SEPTA",
        "OPERATOR": "SEPTA",
        "Line_1": "Market - Frankford Line (MFL)",
        "STATION": "56th Street",
        "Int_Score": 4.0,
        "CNTY": "Philadelphia",
        "FuturePote": 2.6,
        "LINE": "Market/Frankford Line",
        "TCI_Data": 51.0,
        "MCD_NAME": "West",
        "Time_Data": "1.7857142857",
        "Job_Score": 4.0,
        "LUContext": "Core City",
        "Dev_Score": 2.0,
        "TCI_Score": 4.0,
        "LONG": -75.232797,
        "Type_1": "Urban Neighborhood",
        "LOCATION": "Philadelphia",
        "Car_Score": 4.0,
        "Job_Data": 555035.0,
        "COUNTY": "Philadelphia",
        "DVRPC_ID": 164,
        "STATE": "Pennsylvania",
        "FP_Quad": "above",
        "ExistingOr": 3.857143,
        "MAP_NAME": "56th Street Station",
        "QUAD": "aboveabove",
        "Walk_Score": 3.0,
        "Station_Na": "56th Street",
        "Com_Score": 4.0,
        "Int_Data": 25498.0,
        "Car_Data": 89.45,
        "ResRent_Da": 1.4,
        "Com_Data": 58.81,
        "MCD": "Philadelphia",
        "CommRent_S": 3.0,
        "LAT": 39.960982,
        "Planning_S": 3.0,
        "ExO_Quad": "above",
        "Dev_Data": 102.0,
        "CommRent_D": 20.07,
        "TYPE": "Subway-Elevated",
        "ResRent_Sc": 3.0,
        "Land_Score": 2.0,
        "DISTRICT": "4"
      }
    },
    {
      "geometry": {
        "type": "Point",
        "coordinates": [
          -75.24070784487769,
          39.96196238406573
        ]
      },
      "type": "Feature",
      "id": 67,
      "properties": {
        "LOC": "City of Philadelphia",
        "Walk_data": 89.0,
        "Time_Score": 4.0,
        "Agency": "SEPTA",
        "OPERATOR": "SEPTA",
        "Line_1": "Market - Frankford Line (MFL)",
        "STATION": "60th Street",
        "Int_Score": 4.0,
        "CNTY": "Philadelphia",
        "FuturePote": 2.4,
        "LINE": "Market/Frankford Line",
        "TCI_Data": 47.0,
        "MCD_NAME": "West",
        "Time_Data": "1.75",
        "Job_Score": 4.0,
        "LUContext": "Core City",
        "Dev_Score": 3.0,
        "TCI_Score": 4.0,
        "LONG": -75.240708,
        "Type_1": "Urban Neighborhood",
        "LOCATION": "Philadelphia",
        "Car_Score": 4.0,
        "Job_Data": 517804.0,
        "COUNTY": "Philadelphia",
        "DVRPC_ID": 165,
        "STATE": "Pennsylvania",
        "FP_Quad": "above",
        "ExistingOr": 3.857143,
        "MAP_NAME": "60th Street Station",
        "QUAD": "aboveabove",
        "Walk_Score": 3.0,
        "Station_Na": "60th Street",
        "Com_Score": 4.0,
        "Int_Data": 20163.0,
        "Car_Data": 89.48,
        "ResRent_Da": 1.35,
        "Com_Data": 64.2,
        "MCD": "Philadelphia",
        "CommRent_S": 1.0,
        "LAT": 39.961962,
        "Planning_S": 3.0,
        "ExO_Quad": "above",
        "Dev_Data": 172.0,
        "CommRent_D": 12.09,
        "TYPE": "Subway-Elevated",
        "ResRent_Sc": 3.0,
        "Land_Score": 2.0,
        "DISTRICT": "3"
      }
    },
    {
      "geometry": {
        "type": "Point",
        "coordinates": [
          -75.17108670874931,
          39.91679695233312
        ]
      },
      "type": "Feature",
      "id": 68,
      "properties": {
        "LOC": "City of Philadelphia",
        "Walk_data": 91.0,
        "Time_Score": 4.0,
        "Agency": "SEPTA",
        "OPERATOR": "SEPTA",
        "Line_1": "Broad Street Line",
        "STATION": "Oregon",
        "Int_Score": 4.0,
        "CNTY": "Philadelphia",
        "FuturePote": 2.0,
        "LINE": "Broad Street Line",
        "TCI_Data": 47.0,
        "MCD_NAME": "South",
        "Time_Data": "1.0526315789",
        "Job_Score": 3.0,
        "LUContext": "Core City",
        "Dev_Score": 1.0,
        "TCI_Score": 4.0,
        "LONG": -75.171087,
        "Type_1": "Urban Neighborhood",
        "LOCATION": "Philadelphia",
        "Car_Score": 3.0,
        "Job_Data": 492496.0,
        "COUNTY": "Philadelphia",
        "DVRPC_ID": 184,
        "STATE": "Pennsylvania",
        "FP_Quad": "below",
        "ExistingOr": 3.714286,
        "MAP_NAME": "Oregon Station",
        "QUAD": "abovebelow",
        "Walk_Score": 4.0,
        "Station_Na": "Oregon",
        "Com_Score": 4.0,
        "Int_Data": 25759.0,
        "Car_Data": 74.88,
        "ResRent_Da": 1.5,
        "Com_Data": 41.38,
        "MCD": "Philadelphia",
        "CommRent_S": 4.0,
        "LAT": 39.916797,
        "Planning_S": 1.0,
        "ExO_Quad": "above",
        "Dev_Data": 0.0,
        "CommRent_D": 26.68,
        "TYPE": "Subway",
        "ResRent_Sc": 3.0,
        "Land_Score": 1.0,
        "DISTRICT": "2"
      }
    },
    {
      "geometry": {
        "type": "Point",
        "coordinates": [
          -75.1696924348903,
          39.92438226664285
        ]
      },
      "type": "Feature",
      "id": 69,
      "properties": {
        "LOC": "City of Philadelphia",
        "Walk_data": 97.0,
        "Time_Score": 4.0,
        "Agency": "SEPTA",
        "OPERATOR": "SEPTA",
        "Line_1": "Broad Street Line",
        "STATION": "Snyder",
        "Int_Score": 4.0,
        "CNTY": "Philadelphia",
        "FuturePote": 2.8,
        "LINE": "Broad Street Line",
        "TCI_Data": 49.0,
        "MCD_NAME": "South",
        "Time_Data": "1",
        "Job_Score": 3.0,
        "LUContext": "Core City",
        "Dev_Score": 3.0,
        "TCI_Score": 4.0,
        "LONG": -75.169692,
        "Type_1": "Urban Neighborhood",
        "LOCATION": "Philadelphia",
        "Car_Score": 4.0,
        "Job_Data": 497868.0,
        "COUNTY": "Philadelphia",
        "DVRPC_ID": 185,
        "STATE": "Pennsylvania",
        "FP_Quad": "above",
        "ExistingOr": 3.857143,
        "MAP_NAME": "Snyder Station",
        "QUAD": "aboveabove",
        "Walk_Score": 4.0,
        "Station_Na": "Snyder",
        "Com_Score": 4.0,
        "Int_Data": 39025.0,
        "Car_Data": 82.96,
        "ResRent_Da": 1.8,
        "Com_Data": 48.36,
        "MCD": "Philadelphia",
        "CommRent_S": 4.0,
        "LAT": 39.924382,
        "Planning_S": 2.0,
        "ExO_Quad": "above",
        "Dev_Data": 151.0,
        "CommRent_D": 27.83,
        "TYPE": "Subway",
        "ResRent_Sc": 4.0,
        "Land_Score": 1.0,
        "DISTRICT": "1"
      }
    },
    {
      "geometry": {
        "type": "Point",
        "coordinates": [
          -75.15786450676121,
          39.97870272001812
        ]
      },
      "type": "Feature",
      "id": 70,
      "properties": {
        "LOC": "City of Philadelphia",
        "Walk_data": 92.0,
        "Time_Score": 2.0,
        "Agency": "SEPTA",
        "OPERATOR": "SEPTA",
        "Line_1": "Broad Street Line",
        "STATION": "Cecil B. Moore",
        "Int_Score": 4.0,
        "CNTY": "Philadelphia",
        "FuturePote": 2.4,
        "LINE": "Broad Street Line",
        "TCI_Data": 51.0,
        "MCD_NAME": "Lower North",
        "Time_Data": "0.73684210526",
        "Job_Score": 4.0,
        "LUContext": "Core City",
        "Dev_Score": 4.0,
        "TCI_Score": 4.0,
        "LONG": -75.157865,
        "Type_1": "Urban Center",
        "LOCATION": "Philadelphia",
        "Car_Score": 4.0,
        "Job_Data": 657358.0,
        "COUNTY": "Philadelphia",
        "DVRPC_ID": 192,
        "STATE": "Pennsylvania",
        "FP_Quad": "above",
        "ExistingOr": 3.714286,
        "MAP_NAME": "Cecil B Moore Station",
        "QUAD": "aboveabove",
        "Walk_Score": 4.0,
        "Station_Na": "Cecil B Moore",
        "Com_Score": 4.0,
        "Int_Data": 28300.0,
        "Car_Data": 86.72,
        "ResRent_Da": 1.3,
        "Com_Data": 58.72,
        "MCD": "Philadelphia",
        "CommRent_S": 3.0,
        "LAT": 39.978703,
        "Planning_S": 1.0,
        "ExO_Quad": "above",
        "Dev_Data": 955.0,
        "CommRent_D": 18.91,
        "TYPE": "Subway",
        "ResRent_Sc": 2.0,
        "Land_Score": 2.0,
        "DISTRICT": "5"
      }
    },
    {
      "geometry": {
        "type": "Point",
        "coordinates": [
          -75.24668986778383,
          39.96270363295986
        ]
      },
      "type": "Feature",
      "id": 105,
      "properties": {
        "LOC": "City of Philadelphia",
        "Walk_data": 85.0,
        "Time_Score": 4.0,
        "Agency": "SEPTA",
        "OPERATOR": "SEPTA",
        "Line_1": "Market - Frankford Line (MFL)",
        "STATION": "63rd Street",
        "Int_Score": 4.0,
        "CNTY": "Philadelphia",
        "FuturePote": 2.6,
        "LINE": "Market/Frankford Line",
        "TCI_Data": 45.0,
        "MCD_NAME": "West",
        "Time_Data": "1.3333333333",
        "Job_Score": 4.0,
        "LUContext": "Core City",
        "Dev_Score": 2.0,
        "TCI_Score": 4.0,
        "LONG": -75.24669,
        "Type_1": "Urban Neighborhood",
        "LOCATION": "Philadelphia",
        "Car_Score": 4.0,
        "Job_Data": 517558.0,
        "COUNTY": "Philadelphia",
        "DVRPC_ID": 166,
        "STATE": "Pennsylvania",
        "FP_Quad": "above",
        "ExistingOr": 3.857143,
        "MAP_NAME": "63rd Street Station",
        "QUAD": "aboveabove",
        "Walk_Score": 3.0,
        "Station_Na": "63rd Street",
        "Com_Score": 4.0,
        "Int_Data": 17829.0,
        "Car_Data": 86.46,
        "ResRent_Da": 1.35,
        "Com_Data": 53.41,
        "MCD": "Philadelphia",
        "CommRent_S": 1.0,
        "LAT": 39.962704,
        "Planning_S": 4.0,
        "ExO_Quad": "above",
        "Dev_Data": 70.0,
        "CommRent_D": 11.63,
        "TYPE": "Subway-Elevated",
        "ResRent_Sc": 3.0,
        "Land_Score": 3.0,
        "DISTRICT": "3"
      }
    },
    {
      "geometry": {
        "type": "Point",
        "coordinates": [
          -75.21400601364705,
          39.958658550767346
        ]
      },
      "type": "Feature",
      "id": 120,
      "properties": {
        "LOC": "City of Philadelphia",
        "Walk_data": 89.0,
        "Time_Score": 4.0,
        "Agency": "SEPTA",
        "OPERATOR": "SEPTA",
        "Line_1": "Market - Frankford Line (MFL)",
        "STATION": "46th Street",
        "Int_Score": 4.0,
        "CNTY": "Philadelphia",
        "FuturePote": 3.6,
        "LINE": "Market/Frankford Line",
        "TCI_Data": 51.0,
        "MCD_NAME": "University - Southwest",
        "Time_Data": "1.5833333333",
        "Job_Score": 4.0,
        "LUContext": "Core City",
        "Dev_Score": 4.0,
        "TCI_Score": 4.0,
        "LONG": -75.214006,
        "Type_1": "Urban Neighborhood",
        "LOCATION": "Philadelphia",
        "Car_Score": 4.0,
        "Job_Data": 538086.0,
        "COUNTY": "Philadelphia",
        "DVRPC_ID": 159,
        "STATE": "Pennsylvania",
        "FP_Quad": "above",
        "ExistingOr": 3.857143,
        "MAP_NAME": "46th Street Station",
        "QUAD": "aboveabove",
        "Walk_Score": 3.0,
        "Station_Na": "46th Street",
        "Com_Score": 4.0,
        "Int_Data": 21606.0,
        "Car_Data": 87.02,
        "ResRent_Da": 1.35,
        "Com_Data": 63.58,
        "MCD": "Philadelphia",
        "CommRent_S": 4.0,
        "LAT": 39.958659,
        "Planning_S": 4.0,
        "ExO_Quad": "above",
        "Dev_Data": 703.0,
        "CommRent_D": 26.37,
        "TYPE": "Subway-Elevated",
        "ResRent_Sc": 3.0,
        "Land_Score": 3.0,
        "DISTRICT": "3"
      }
    },
    {
      "geometry": {
        "type": "Point",
        "coordinates": [
          -75.11342485851574,
          39.996480471267176
        ]
      },
      "type": "Feature",
      "id": 121,
      "properties": {
        "LOC": "City of Philadelphia",
        "Walk_data": 72.0,
        "Time_Score": 3.0,
        "Agency": "SEPTA",
        "OPERATOR": "SEPTA",
        "Line_1": "Market - Frankford Line (MFL)",
        "STATION": "Allegheny",
        "Int_Score": 4.0,
        "CNTY": "Philadelphia",
        "FuturePote": 1.4,
        "LINE": "Market/Frankford Line",
        "TCI_Data": 39.0,
        "MCD_NAME": "North",
        "Time_Data": "0.83333333333",
        "Job_Score": 4.0,
        "LUContext": "Core City",
        "Dev_Score": 1.0,
        "TCI_Score": 4.0,
        "LONG": -75.113425,
        "Type_1": "Urban Neighborhood",
        "LOCATION": "Philadelphia",
        "Car_Score": 4.0,
        "Job_Data": 558762.0,
        "COUNTY": "Philadelphia",
        "DVRPC_ID": 170,
        "STATE": "Pennsylvania",
        "FP_Quad": "below",
        "ExistingOr": 3.714286,
        "MAP_NAME": "Allegheny Station",
        "QUAD": "abovebelow",
        "Walk_Score": 3.0,
        "Station_Na": "Allegheny",
        "Com_Score": 4.0,
        "Int_Data": 27733.0,
        "Car_Data": 86.81,
        "ResRent_Da": 0.77,
        "Com_Data": 40.86,
        "MCD": "Philadelphia",
        "CommRent_S": 1.0,
        "LAT": 39.99648,
        "Planning_S": 1.0,
        "ExO_Quad": "above",
        "Dev_Data": 0.0,
        "CommRent_D": 12.47,
        "TYPE": "Subway-Elevated",
        "ResRent_Sc": 1.0,
        "Land_Score": 3.0,
        "DISTRICT": "7"
      }
    },
    {
      "geometry": {
        "type": "Point",
        "coordinates": [
          -75.12741653027649,
          39.988787013300616
        ]
      },
      "type": "Feature",
      "id": 122,
      "properties": {
        "LOC": "City of Philadelphia",
        "Walk_data": 89.0,
        "Time_Score": 4.0,
        "Agency": "SEPTA",
        "OPERATOR": "SEPTA",
        "Line_1": "Market - Frankford Line (MFL)",
        "STATION": "Huntingdon",
        "Int_Score": 4.0,
        "CNTY": "Philadelphia",
        "FuturePote": 2.8,
        "LINE": "Market/Frankford Line",
        "TCI_Data": 41.0,
        "MCD_NAME": "Lower North",
        "Time_Data": "1.3157894737",
        "Job_Score": 4.0,
        "LUContext": "Core City",
        "Dev_Score": 3.0,
        "TCI_Score": 4.0,
        "LONG": -75.127417,
        "Type_1": "Urban Neighborhood",
        "LOCATION": "Philadelphia",
        "Car_Score": 4.0,
        "Job_Data": 534203.0,
        "COUNTY": "Philadelphia",
        "DVRPC_ID": 172,
        "STATE": "Pennsylvania",
        "FP_Quad": "above",
        "ExistingOr": 3.857143,
        "MAP_NAME": "Huntingdon Station",
        "QUAD": "aboveabove",
        "Walk_Score": 3.0,
        "Station_Na": "Huntingdon",
        "Com_Score": 4.0,
        "Int_Data": 19489.0,
        "Car_Data": 82.77,
        "ResRent_Da": 1.8,
        "Com_Data": 46.84,
        "MCD": "Philadelphia",
        "CommRent_S": 3.0,
        "LAT": 39.988787,
        "Planning_S": 1.0,
        "ExO_Quad": "above",
        "Dev_Data": 141.0,
        "CommRent_D": 21.08,
        "TYPE": "Subway-Elevated",
        "ResRent_Sc": 4.0,
        "Land_Score": 3.0,
        "DISTRICT": "7"
      }
    },
    {
      "geometry": {
        "type": "Point",
        "coordinates": [
          -75.13351118920757,
          39.97862789888984
        ]
      },
      "type": "Feature",
      "id": 123,
      "properties": {
        "LOC": "City of Philadelphia",
        "Walk_data": 93.0,
        "Time_Score": 4.0,
        "Agency": "SEPTA",
        "OPERATOR": "SEPTA",
        "Line_1": "Market - Frankford Line (MFL)",
        "STATION": "Berks",
        "Int_Score": 4.0,
        "CNTY": "Philadelphia",
        "FuturePote": 2.2,
        "LINE": "Market/Frankford Line",
        "TCI_Data": 43.0,
        "MCD_NAME": "Lower North",
        "Time_Data": "1.5",
        "Job_Score": 4.0,
        "LUContext": "Core City",
        "Dev_Score": 3.0,
        "TCI_Score": 4.0,
        "LONG": -75.133511,
        "Type_1": "Urban Neighborhood",
        "LOCATION": "Philadelphia",
        "Car_Score": 3.0,
        "Job_Data": 532517.0,
        "COUNTY": "Philadelphia",
        "DVRPC_ID": 173,
        "STATE": "Pennsylvania",
        "FP_Quad": "above",
        "ExistingOr": 3.857143,
        "MAP_NAME": "Berks Station",
        "QUAD": "aboveabove",
        "Walk_Score": 4.0,
        "Station_Na": "Berks",
        "Com_Score": 4.0,
        "Int_Data": 17496.0,
        "Car_Data": 76.3,
        "ResRent_Da": 1.3,
        "Com_Data": 44.39,
        "MCD": "Philadelphia",
        "CommRent_S": 2.0,
        "LAT": 39.978628,
        "Planning_S": 1.0,
        "ExO_Quad": "above",
        "Dev_Data": 371.0,
        "CommRent_D": 18.64,
        "TYPE": "Subway-Elevated",
        "ResRent_Sc": 2.0,
        "Land_Score": 3.0,
        "DISTRICT": "7"
      }
    },
    {
      "geometry": {
        "type": "Point",
        "coordinates": [
          -75.17318821421424,
          39.90534943951306
        ]
      },
      "type": "Feature",
      "id": 124,
      "properties": {
        "LOC": "City of Philadelphia",
        "Walk_data": 55.0,
        "Time_Score": 4.0,
        "Agency": "SEPTA",
        "OPERATOR": "SEPTA",
        "Line_1": "Broad Street Line",
        "STATION": "AT&T Station",
        "Int_Score": 1.0,
        "CNTY": "Philadelphia",
        "FuturePote": 1.8,
        "LINE": "Broad Street Line",
        "TCI_Data": 27.0,
        "MCD_NAME": "Lower South",
        "Time_Data": "1.0909090909",
        "Job_Score": 3.0,
        "LUContext": "Core City",
        "Dev_Score": 1.0,
        "TCI_Score": 3.0,
        "LONG": -75.173188,
        "Type_1": "Special District: Stadium",
        "LOCATION": "Philadelphia",
        "Car_Score": 2.0,
        "Job_Data": 465265.0,
        "COUNTY": "Philadelphia",
        "DVRPC_ID": 183,
        "STATE": "Pennsylvania",
        "FP_Quad": "below",
        "ExistingOr": 2.571429,
        "MAP_NAME": "AT&T Station",
        "QUAD": "abovebelow",
        "Walk_Score": 2.0,
        "Station_Na": "AT&T Station",
        "Com_Score": 3.0,
        "Int_Data": 2942.0,
        "Car_Data": 59.9,
        "ResRent_Da": 1.45,
        "Com_Data": 28.24,
        "MCD": "Philadelphia",
        "CommRent_S": 3.0,
        "LAT": 39.905349,
        "Planning_S": 1.0,
        "ExO_Quad": "above",
        "Dev_Data": 0.0,
        "CommRent_D": 21.64,
        "TYPE": "Subway",
        "ResRent_Sc": 3.0,
        "Land_Score": 1.0,
        "DISTRICT": "2"
      }
    },
    {
      "geometry": {
        "type": "Point",
        "coordinates": [
          -75.15944390354655,
          39.97145742167888
        ]
      },
      "type": "Feature",
      "id": 125,
      "properties": {
        "LOC": "City of Philadelphia",
        "Walk_data": 91.0,
        "Time_Score": 3.0,
        "Agency": "SEPTA",
        "OPERATOR": "SEPTA",
        "Line_1": "Broad Street Line",
        "STATION": "Girard",
        "Int_Score": 4.0,
        "CNTY": "Philadelphia",
        "FuturePote": 3.0,
        "LINE": "Broad Street Line",
        "TCI_Data": 53.0,
        "MCD_NAME": "Lower North",
        "Time_Data": "0.92307692308",
        "Job_Score": 4.0,
        "LUContext": "Core City",
        "Dev_Score": 4.0,
        "TCI_Score": 4.0,
        "LONG": -75.159444,
        "Type_1": "Urban Neighborhood",
        "LOCATION": "Philadelphia",
        "Car_Score": 4.0,
        "Job_Data": 598974.0,
        "COUNTY": "Philadelphia",
        "DVRPC_ID": 191,
        "STATE": "Pennsylvania",
        "FP_Quad": "above",
        "ExistingOr": 3.857143,
        "MAP_NAME": "Girard Station",
        "QUAD": "aboveabove",
        "Walk_Score": 4.0,
        "Station_Na": "Girard",
        "Com_Score": 4.0,
        "Int_Data": 20769.0,
        "Car_Data": 85.85,
        "ResRent_Da": 1.35,
        "Com_Data": 54.22,
        "MCD": "Philadelphia",
        "CommRent_S": 2.0,
        "LAT": 39.971457,
        "Planning_S": 2.0,
        "ExO_Quad": "above",
        "Dev_Data": 1626.0,
        "CommRent_D": 18.61,
        "TYPE": "Subway",
        "ResRent_Sc": 3.0,
        "Land_Score": 4.0,
        "DISTRICT": "5"
      }
    },
    {
      "geometry": {
        "type": "Point",
        "coordinates": [
          -75.15603877335295,
          39.98707613822932
        ]
      },
      "type": "Feature",
      "id": 126,
      "properties": {
        "LOC": "City of Philadelphia",
        "Walk_data": 93.0,
        "Time_Score": 3.0,
        "Agency": "SEPTA",
        "OPERATOR": "SEPTA",
        "Line_1": "Broad Street Line",
        "STATION": "Susquehanna-Dauphin",
        "Int_Score": 4.0,
        "CNTY": "Philadelphia",
        "FuturePote": 1.6,
        "LINE": "Broad Street Line",
        "TCI_Data": 50.0,
        "MCD_NAME": "Lower North",
        "Time_Data": "0.85",
        "Job_Score": 4.0,
        "LUContext": "Core City",
        "Dev_Score": 3.0,
        "TCI_Score": 4.0,
        "LONG": -75.156039,
        "Type_1": "Urban Neighborhood",
        "LOCATION": "Philadelphia",
        "Car_Score": 4.0,
        "Job_Data": 596523.0,
        "COUNTY": "Philadelphia",
        "DVRPC_ID": 193,
        "STATE": "Pennsylvania",
        "FP_Quad": "below",
        "ExistingOr": 3.857143,
        "MAP_NAME": "Susquehanna-Dauphin Station",
        "QUAD": "abovebelow",
        "Walk_Score": 4.0,
        "Station_Na": "Susquehanna-Dauphin",
        "Com_Score": 4.0,
        "Int_Data": 25672.0,
        "Car_Data": 93.55,
        "ResRent_Da": 0.9,
        "Com_Data": 56.92,
        "MCD": "Philadelphia",
        "CommRent_S": 1.0,
        "LAT": 39.987076,
        "Planning_S": 1.0,
        "ExO_Quad": "above",
        "Dev_Data": 170.0,
        "CommRent_D": 10.42,
        "TYPE": "Subway",
        "ResRent_Sc": 1.0,
        "Land_Score": 2.0,
        "DISTRICT": "5"
      }
    },
    {
      "geometry": {
        "type": "Point",
        "coordinates": [
          -75.15119881308937,
          40.00925644971963
        ]
      },
      "type": "Feature",
      "id": 127,
      "properties": {
        "LOC": "City of Philadelphia",
        "Walk_data": 84.0,
        "Time_Score": 4.0,
        "Agency": "SEPTA",
        "OPERATOR": "SEPTA",
        "Line_1": "Broad Street Line",
        "STATION": "Erie",
        "Int_Score": 4.0,
        "CNTY": "Philadelphia",
        "FuturePote": 2.8,
        "LINE": "Broad Street Line",
        "TCI_Data": 50.0,
        "MCD_NAME": "North",
        "Time_Data": "1.3888888889",
        "Job_Score": 4.0,
        "LUContext": "Core City",
        "Dev_Score": 1.0,
        "TCI_Score": 4.0,
        "LONG": -75.151199,
        "Type_1": "Urban Neighborhood",
        "LOCATION": "Philadelphia",
        "Car_Score": 4.0,
        "Job_Data": 574974.0,
        "COUNTY": "Philadelphia",
        "DVRPC_ID": 196,
        "STATE": "Pennsylvania",
        "FP_Quad": "above",
        "ExistingOr": 3.857143,
        "MAP_NAME": "Erie Station",
        "QUAD": "aboveabove",
        "Walk_Score": 3.0,
        "Station_Na": "Erie",
        "Com_Score": 4.0,
        "Int_Data": 24064.0,
        "Car_Data": 87.93,
        "ResRent_Da": 1.35,
        "Com_Data": 57.41,
        "MCD": "Philadelphia",
        "CommRent_S": 4.0,
        "LAT": 40.009256,
        "Planning_S": 3.0,
        "ExO_Quad": "above",
        "Dev_Data": 30.0,
        "CommRent_D": 23.36,
        "TYPE": "Subway",
        "ResRent_Sc": 3.0,
        "Land_Score": 3.0,
        "DISTRICT": "5"
      }
    },
    {
      "geometry": {
        "type": "Point",
        "coordinates": [
          -75.14929596160611,
          40.01795976125346
        ]
      },
      "type": "Feature",
      "id": 128,
      "properties": {
        "LOC": "City of Philadelphia",
        "Walk_data": 75.0,
        "Time_Score": 4.0,
        "Agency": "SEPTA",
        "OPERATOR": "SEPTA",
        "Line_1": "Broad Street Line",
        "STATION": "Hunting Park",
        "Int_Score": 3.0,
        "CNTY": "Philadelphia",
        "FuturePote": 1.4,
        "LINE": "Broad Street Line",
        "TCI_Data": 45.0,
        "MCD_NAME": "North",
        "Time_Data": "1.0740740741",
        "Job_Score": 4.0,
        "LUContext": "Core City",
        "Dev_Score": 1.0,
        "TCI_Score": 4.0,
        "LONG": -75.149296,
        "Type_1": "Urban Neighborhood",
        "LOCATION": "Philadelphia",
        "Car_Score": 4.0,
        "Job_Data": 603969.0,
        "COUNTY": "Philadelphia",
        "DVRPC_ID": 197,
        "STATE": "Pennsylvania",
        "FP_Quad": "below",
        "ExistingOr": 3.714286,
        "MAP_NAME": "Hunting Park Station",
        "QUAD": "abovebelow",
        "Walk_Score": 3.0,
        "Station_Na": "Hunting Park",
        "Com_Score": 4.0,
        "Int_Data": 13859.0,
        "Car_Data": 85.91,
        "ResRent_Da": 0.7,
        "Com_Data": 53.71,
        "MCD": "Philadelphia",
        "CommRent_S": 2.0,
        "LAT": 40.01796,
        "Planning_S": 1.0,
        "ExO_Quad": "above",
        "Dev_Data": 32.0,
        "CommRent_D": 18.31,
        "TYPE": "Subway",
        "ResRent_Sc": 1.0,
        "Land_Score": 2.0,
        "DISTRICT": "5"
      }
    },
    {
      "geometry": {
        "type": "Point",
        "coordinates": [
          -75.07806280256958,
          40.02290793139547
        ]
      },
      "type": "Feature",
      "id": 149,
      "properties": {
        "LOC": "City of Philadelphia",
        "Walk_data": 81.0,
        "Time_Score": 4.0,
        "Agency": "SEPTA",
        "OPERATOR": "SEPTA",
        "Line_1": "Market - Frankford Line (MFL)",
        "STATION": "Frankford Transportation Center",
        "Int_Score": 4.0,
        "CNTY": "Philadelphia",
        "FuturePote": 1.6,
        "LINE": "Market/Frankford Line",
        "TCI_Data": 50.0,
        "MCD_NAME": "Lower Northeast",
        "Time_Data": "1.3214285714",
        "Job_Score": 3.0,
        "LUContext": "Core City",
        "Dev_Score": 1.0,
        "TCI_Score": 4.0,
        "LONG": -75.078063,
        "Type_1": "Urban Neighborhood",
        "LOCATION": "Philadelphia",
        "Car_Score": 3.0,
        "Job_Data": 447115.0,
        "COUNTY": "Philadelphia",
        "DVRPC_ID": 151,
        "STATE": "Pennsylvania",
        "FP_Quad": "below",
        "ExistingOr": 3.428571,
        "MAP_NAME": "Frankford Transportation Center",
        "QUAD": "abovebelow",
        "Walk_Score": 3.0,
        "Station_Na": "Frankford Transportation Center",
        "Com_Score": 3.0,
        "Int_Data": 18060.0,
        "Car_Data": 72.52,
        "ResRent_Da": 0.95,
        "Com_Data": 31.06,
        "MCD": "Philadelphia",
        "CommRent_S": 2.0,
        "LAT": 40.022908,
        "Planning_S": 2.0,
        "ExO_Quad": "above",
        "Dev_Data": 22.0,
        "CommRent_D": 18.58,
        "TYPE": "Subway-Elevated",
        "ResRent_Sc": 1.0,
        "Land_Score": 2.0,
        "DISTRICT": "7"
      }
    },
    {
      "geometry": {
        "type": "Point",
        "coordinates": [
          -75.08908301885631,
          40.01041458271683
        ]
      },
      "type": "Feature",
      "id": 152,
      "properties": {
        "LOC": "City of Philadelphia",
        "Walk_data": 87.0,
        "Time_Score": 4.0,
        "Agency": "SEPTA",
        "OPERATOR": "SEPTA",
        "Line_1": "Market - Frankford Line (MFL)",
        "STATION": "Church",
        "Int_Score": 3.0,
        "CNTY": "Philadelphia",
        "FuturePote": 2.2,
        "LINE": "Market/Frankford Line",
        "TCI_Data": 41.0,
        "MCD_NAME": "Lower Northeast",
        "Time_Data": "1.3103448276",
        "Job_Score": 3.0,
        "LUContext": "Core City",
        "Dev_Score": 1.0,
        "TCI_Score": 4.0,
        "LONG": -75.089083,
        "Type_1": "Urban Neighborhood",
        "LOCATION": "Philadelphia",
        "Car_Score": 4.0,
        "Job_Data": 476808.0,
        "COUNTY": "Philadelphia",
        "DVRPC_ID": 167,
        "STATE": "Pennsylvania",
        "FP_Quad": "above",
        "ExistingOr": 3.571429,
        "MAP_NAME": "Church Station",
        "QUAD": "aboveabove",
        "Walk_Score": 3.0,
        "Station_Na": "Church",
        "Com_Score": 4.0,
        "Int_Data": 12705.0,
        "Car_Data": 82.92,
        "ResRent_Da": 1.75,
        "Com_Data": 41.44,
        "MCD": "Philadelphia",
        "CommRent_S": 1.0,
        "LAT": 40.010415,
        "Planning_S": 2.0,
        "ExO_Quad": "above",
        "Dev_Data": 5.0,
        "CommRent_D": 13.65,
        "TYPE": "Subway-Elevated",
        "ResRent_Sc": 4.0,
        "Land_Score": 3.0,
        "DISTRICT": "7"
      }
    },
    {
      "geometry": {
        "type": "Point",
        "coordinates": [
          -75.12227201084828,
          39.99161560143554
        ]
      },
      "type": "Feature",
      "id": 153,
      "properties": {
        "LOC": "City of Philadelphia",
        "Walk_data": 91.0,
        "Time_Score": 4.0,
        "Agency": "SEPTA",
        "OPERATOR": "SEPTA",
        "Line_1": "Market - Frankford Line (MFL)",
        "STATION": "Somerset",
        "Int_Score": 4.0,
        "CNTY": "Philadelphia",
        "FuturePote": 2.0,
        "LINE": "Market/Frankford Line",
        "TCI_Data": 45.0,
        "MCD_NAME": "North",
        "Time_Data": "1.0869565217",
        "Job_Score": 4.0,
        "LUContext": "Core City",
        "Dev_Score": 1.0,
        "TCI_Score": 4.0,
        "LONG": -75.122272,
        "Type_1": "Urban Neighborhood",
        "LOCATION": "Philadelphia",
        "Car_Score": 4.0,
        "Job_Data": 529585.0,
        "COUNTY": "Philadelphia",
        "DVRPC_ID": 171,
        "STATE": "Pennsylvania",
        "FP_Quad": "below",
        "ExistingOr": 4.0,
        "MAP_NAME": "Somerset Station",
        "QUAD": "abovebelow",
        "Walk_Score": 4.0,
        "Station_Na": "Somerset",
        "Com_Score": 4.0,
        "Int_Data": 22819.0,
        "Car_Data": 85.24,
        "ResRent_Da": 0.76,
        "Com_Data": 41.54,
        "MCD": "Philadelphia",
        "CommRent_S": 3.0,
        "LAT": 39.991616,
        "Planning_S": 1.0,
        "ExO_Quad": "above",
        "Dev_Data": 0.0,
        "CommRent_D": 19.36,
        "TYPE": "Subway-Elevated",
        "ResRent_Sc": 1.0,
        "Land_Score": 4.0,
        "DISTRICT": "7"
      }
    },
    {
      "geometry": {
        "type": "Point",
        "coordinates": [
          -75.1478538527429,
          40.024554199887945
        ]
      },
      "type": "Feature",
      "id": 154,
      "properties": {
        "LOC": "City of Philadelphia",
        "Walk_data": 80.0,
        "Time_Score": 4.0,
        "Agency": "SEPTA",
        "OPERATOR": "SEPTA",
        "Line_1": "Broad Street Line",
        "STATION": "Wyoming",
        "Int_Score": 3.0,
        "CNTY": "Philadelphia",
        "FuturePote": 1.2,
        "LINE": "Broad Street Line",
        "TCI_Data": 44.0,
        "MCD_NAME": "Upper North",
        "Time_Data": "1.1379310345",
        "Job_Score": 4.0,
        "LUContext": "Core City",
        "Dev_Score": 1.0,
        "TCI_Score": 4.0,
        "LONG": -75.147854,
        "Type_1": "Urban Neighborhood",
        "LOCATION": "Philadelphia",
        "Car_Score": 4.0,
        "Job_Data": 501405.0,
        "COUNTY": "Philadelphia",
        "DVRPC_ID": 198,
        "STATE": "Pennsylvania",
        "FP_Quad": "below",
        "ExistingOr": 3.714286,
        "MAP_NAME": "Wyoming Station",
        "QUAD": "abovebelow",
        "Walk_Score": 3.0,
        "Station_Na": "Wyoming",
        "Com_Score": 4.0,
        "Int_Data": 15947.0,
        "Car_Data": 83.11,
        "ResRent_Da": 0.95,
        "Com_Data": 44.43,
        "MCD": "Philadelphia",
        "CommRent_S": 1.0,
        "LAT": 40.024554,
        "Planning_S": 1.0,
        "ExO_Quad": "above",
        "Dev_Data": 40.0,
        "CommRent_D": 14.58,
        "TYPE": "Subway",
        "ResRent_Sc": 1.0,
        "Land_Score": 2.0,
        "DISTRICT": "8"
      }
    }
  ]
}